{
  "type": "FeatureCollection",
  "features": [
    {
      "type": "Feature",
      "properties": {
        "norad_id": 67011,
        "name": "STARLINK-36167",
        "group": "last-30-days",
        "lat": 61.94769582900562,
        "lon": -32.76905365850063,
        "alt_km": 345.54311083845187,
        "timestamp": "2025-12-26T11:25:43.987868+00:00",
        "meta_object_name": "STARLINK-36167",
        "meta_object_id": "2025-293J",
        "meta_epoch": "2025-12-26T04:00:01.998720",
        "meta_mean_motion": 15.7423106,
        "meta_eccentricity": 0.0003546,
        "meta_inclination": 69.9953,
        "meta_ra_of_asc_node": 284.9725,
        "meta_arg_of_pericenter": 271.4853,
        "meta_mean_anomaly": 205.535,
        "meta_ephemeris_type": 0,
        "meta_classification_type": "U",
        "meta_norad_cat_id": 67011,
        "meta_element_set_no": 999,
        "meta_rev_at_epoch": 226,
        "meta_bstar": -0.012706,
        "meta_mean_motion_dot": -0.0162993,
        "meta_mean_motion_ddot": 0,
        "tle_line1": "1 67011U 25293J   25360.16668980 -.01629930  00000+0 -12706-1 0  9994",
        "tle_line2": "2 67011  69.9953 284.9725 0003546 271.4853 205.5350 15.74231060  2262"
      },
      "geometry": {
        "type": "Point",
        "coordinates": [
          -32.76905365850063,
          61.94769582900562
        ]
      }
    },
    {
      "type": "Feature",
      "properties": {
        "norad_id": 67012,
        "name": "STARLINK-36175",
        "group": "last-30-days",
        "lat": 64.8720252255519,
        "lon": -24.94100553230151,
        "alt_km": 345.33551597551013,
        "timestamp": "2025-12-26T11:25:43.987878+00:00",
        "meta_object_name": "STARLINK-36175",
        "meta_object_id": "2025-293K",
        "meta_epoch": "2025-12-26T04:00:01.998720",
        "meta_mean_motion": 15.74198833,
        "meta_eccentricity": 0.0003533,
        "meta_inclination": 69.9952,
        "meta_ra_of_asc_node": 284.9674,
        "meta_arg_of_pericenter": 275.114,
        "meta_mean_anomaly": 206.4952,
        "meta_ephemeris_type": 0,
        "meta_classification_type": "U",
        "meta_norad_cat_id": 67012,
        "meta_element_set_no": 999,
        "meta_rev_at_epoch": 226,
        "meta_bstar": -0.012738,
        "meta_mean_motion_dot": -0.0163153,
        "meta_mean_motion_ddot": 0,
        "tle_line1": "1 67012U 25293K   25360.16668980 -.01631530  00000+0 -12738-1 0  9999",
        "tle_line2": "2 67012  69.9952 284.9674 0003533 275.1140 206.4952 15.74198833  2269"
      },
      "geometry": {
        "type": "Point",
        "coordinates": [
          -24.94100553230151,
          64.8720252255519
        ]
      }
    },
    {
      "type": "Feature",
      "properties": {
        "norad_id": 67013,
        "name": "STARLINK-35856",
        "group": "last-30-days",
        "lat": 66.21585017364119,
        "lon": -20.15169902594536,
        "alt_km": 345.31110855400493,
        "timestamp": "2025-12-26T11:25:43.987887+00:00",
        "meta_object_name": "STARLINK-35856",
        "meta_object_id": "2025-293L",
        "meta_epoch": "2025-12-26T04:00:01.998720",
        "meta_mean_motion": 15.74176865,
        "meta_eccentricity": 0.0003481,
        "meta_inclination": 69.995,
        "meta_ra_of_asc_node": 284.9641,
        "meta_arg_of_pericenter": 271.6983,
        "meta_mean_anomaly": 212.3316,
        "meta_ephemeris_type": 0,
        "meta_classification_type": "U",
        "meta_norad_cat_id": 67013,
        "meta_element_set_no": 999,
        "meta_rev_at_epoch": 226,
        "meta_bstar": -0.012775,
        "meta_mean_motion_dot": -0.01634402,
        "meta_mean_motion_ddot": 0,
        "tle_line1": "1 67013U 25293L   25360.16668980 -.01634402  00000+0 -12775-1 0  9992",
        "tle_line2": "2 67013  69.9950 284.9641 0003481 271.6983 212.3316 15.74176865  2261"
      },
      "geometry": {
        "type": "Point",
        "coordinates": [
          -20.15169902594536,
          66.21585017364119
        ]
      }
    },
    {
      "type": "Feature",
      "properties": {
        "norad_id": 67014,
        "name": "STARLINK-36207",
        "group": "last-30-days",
        "lat": 67.3534168066435,
        "lon": -15.074571314518506,
        "alt_km": 345.3338949736608,
        "timestamp": "2025-12-26T11:25:43.987896+00:00",
        "meta_object_name": "STARLINK-36207",
        "meta_object_id": "2025-293M",
        "meta_epoch": "2025-12-26T04:00:01.998720",
        "meta_mean_motion": 15.74157313,
        "meta_eccentricity": 0.0003595,
        "meta_inclination": 69.9952,
        "meta_ra_of_asc_node": 284.9619,
        "meta_arg_of_pericenter": 273.8196,
        "meta_mean_anomaly": 212.5285,
        "meta_ephemeris_type": 0,
        "meta_classification_type": "U",
        "meta_norad_cat_id": 67014,
        "meta_element_set_no": 999,
        "meta_rev_at_epoch": 232,
        "meta_bstar": -0.012768,
        "meta_mean_motion_dot": -0.01632461,
        "meta_mean_motion_ddot": 0,
        "tle_line1": "1 67014U 25293M   25360.16668980 -.01632461  00000+0 -12768-1 0  9998",
        "tle_line2": "2 67014  69.9952 284.9619 0003595 273.8196 212.5285 15.74157313  2326"
      },
      "geometry": {
        "type": "Point",
        "coordinates": [
          -15.074571314518506,
          67.3534168066435
        ]
      }
    },
    {
      "type": "Feature",
      "properties": {
        "norad_id": 67015,
        "name": "STARLINK-36093",
        "group": "last-30-days",
        "lat": 69.06440621804502,
        "lon": -3.6839027268848574,
        "alt_km": 345.2398132498083,
        "timestamp": "2025-12-26T11:25:43.987905+00:00",
        "meta_object_name": "STARLINK-36093",
        "meta_object_id": "2025-293N",
        "meta_epoch": "2025-12-26T04:00:01.998720",
        "meta_mean_motion": 15.74119864,
        "meta_eccentricity": 0.0003448,
        "meta_inclination": 69.9952,
        "meta_ra_of_asc_node": 284.9563,
        "meta_arg_of_pericenter": 271.3599,
        "meta_mean_anomaly": 219.5806,
        "meta_ephemeris_type": 0,
        "meta_classification_type": "U",
        "meta_norad_cat_id": 67015,
        "meta_element_set_no": 999,
        "meta_rev_at_epoch": 226,
        "meta_bstar": -0.01277,
        "meta_mean_motion_dot": -0.01630145,
        "meta_mean_motion_ddot": 0,
        "tle_line1": "1 67015U 25293N   25360.16668980 -.01630145  00000+0 -12770-1 0  9999",
        "tle_line2": "2 67015  69.9952 284.9563 0003448 271.3599 219.5806 15.74119864  2260"
      },
      "geometry": {
        "type": "Point",
        "coordinates": [
          -3.6839027268848574,
          69.06440621804502
        ]
      }
    },
    {
      "type": "Feature",
      "properties": {
        "norad_id": 67016,
        "name": "STARLINK-36120",
        "group": "last-30-days",
        "lat": 68.27429643327679,
        "lon": -9.803623562825011,
        "alt_km": 345.2510098042367,
        "timestamp": "2025-12-26T11:25:43.987914+00:00",
        "meta_object_name": "STARLINK-36120",
        "meta_object_id": "2025-293P",
        "meta_epoch": "2025-12-26T04:00:01.998720",
        "meta_mean_motion": 15.74144894,
        "meta_eccentricity": 0.0003489,
        "meta_inclination": 69.9951,
        "meta_ra_of_asc_node": 284.9597,
        "meta_arg_of_pericenter": 272.5794,
        "meta_mean_anomaly": 215.9749,
        "meta_ephemeris_type": 0,
        "meta_classification_type": "U",
        "meta_norad_cat_id": 67016,
        "meta_element_set_no": 999,
        "meta_rev_at_epoch": 226,
        "meta_bstar": -0.012794,
        "meta_mean_motion_dot": -0.0163452,
        "meta_mean_motion_ddot": 0,
        "tle_line1": "1 67016U 25293P   25360.16668980 -.01634520  00000+0 -12794-1 0  9997",
        "tle_line2": "2 67016  69.9951 284.9597 0003489 272.5794 215.9749 15.74144894  2269"
      },
      "geometry": {
        "type": "Point",
        "coordinates": [
          -9.803623562825011,
          68.27429643327679
        ]
      }
    },
    {
      "type": "Feature",
      "properties": {
        "norad_id": 67017,
        "name": "STARLINK-35498",
        "group": "last-30-days",
        "lat": 69.60285123065377,
        "lon": 2.5505055188559367,
        "alt_km": 345.3113222158554,
        "timestamp": "2025-12-26T11:25:43.987924+00:00",
        "meta_object_name": "STARLINK-35498",
        "meta_object_id": "2025-293Q",
        "meta_epoch": "2025-12-26T04:00:01.998720",
        "meta_mean_motion": 15.7410497,
        "meta_eccentricity": 0.0003546,
        "meta_inclination": 69.9948,
        "meta_ra_of_asc_node": 284.9532,
        "meta_arg_of_pericenter": 272.6856,
        "meta_mean_anomaly": 220.5334,
        "meta_ephemeris_type": 0,
        "meta_classification_type": "U",
        "meta_norad_cat_id": 67017,
        "meta_element_set_no": 999,
        "meta_rev_at_epoch": 246,
        "meta_bstar": -0.01279,
        "meta_mean_motion_dot": -0.01631644,
        "meta_mean_motion_ddot": 0,
        "tle_line1": "1 67017U 25293Q   25360.16668980 -.01631644  00000+0 -12790-1 0  9998",
        "tle_line2": "2 67017  69.9948 284.9532 0003546 272.6856 220.5334 15.74104970  2464"
      },
      "geometry": {
        "type": "Point",
        "coordinates": [
          2.5505055188559367,
          69.60285123065377
        ]
      }
    }
  ]
}